start=new Date('2022-03-20T00:00:00.000Z').valueOf();
sats=[{"EPHEMERIS_TYPE":"0","SITE":"AFETR","REF_FRAME":"TEME","ECCENTRICITY":"0.00018810","TLE_LINE1":"1 47870U 21021L   22078.91741121  .00006698  00000-0  46789-3 0  9993","NORAD_CAT_ID":"47870","APOAPSIS":"548.463","ELEMENT_SET_NO":"999","MEAN_MOTION":"15.06417499","LAUNCH_DATE":"2021-03-14","TLE_LINE2":"2 47870  53.0525 319.3847 0001881  59.1268 300.9906 15.06417499 57210","MEAN_ELEMENT_THEORY":"SGP4","DECAY_DATE":null,"MEAN_MOTION_DDOT":"0.0000000000000","COUNTRY_CODE":"US","OBJECT_NAME":"STARLINK-2326","CLASSIFICATION_TYPE":"U","PERIOD":"95.591","FILE":"3366144","RCS_SIZE":"LARGE","OBJECT_TYPE":"PAYLOAD","BSTAR":"0.00046789000000","TIME_SYSTEM":"UTC","CENTER_NAME":"EARTH","MEAN_ANOMALY":"300.9906","MEAN_MOTION_DOT":"0.00006698","PERIAPSIS":"545.857","EPOCH":"2022-03-19T22:01:04.328544","ARG_OF_PERICENTER":"59.1268","REV_AT_EPOCH":"5721","INCLINATION":"53.0525","RA_OF_ASC_NODE":"319.3847","OBJECT_ID":"2021-021L","SEMIMAJOR_AXIS":"6925.295","GP_ID":"199185928"},{"TLE_LINE2":"2 47871  53.0535 294.7955 0001550  59.8732 300.2411 15.06398068 57656","MEAN_ELEMENT_THEORY":"SGP4","APOAPSIS":"548.293","ELEMENT_SET_NO":"999","MEAN_MOTION":"15.06398068","LAUNCH_DATE":"2021-03-14","TLE_LINE1":"1 47871U 21021M   22078.82940199  .00000451  00000-0  49184-4 0  9994","NORAD_CAT_ID":"47871","ECCENTRICITY":"0.00015500","REF_FRAME":"TEME","SITE":"AFETR","EPHEMERIS_TYPE":"0","CENTER_NAME":"EARTH","TIME_SYSTEM":"UTC","BSTAR":"0.00004918400000","FILE":"3366144","OBJECT_TYPE":"PAYLOAD","RCS_SIZE":"LARGE","PERIOD":"95.592","DECAY_DATE":null,"COUNTRY_CODE":"US","MEAN_MOTION_DDOT":"0.0000000000000","OBJECT_NAME":"STARLINK-2327","CLASSIFICATION_TYPE":"U","RA_OF_ASC_NODE":"294.7955","INCLINATION":"53.0535","REV_AT_EPOCH":"5765","EPOCH":"2022-03-19T19:54:20.331936","PERIAPSIS":"546.146","ARG_OF_PERICENTER":"59.8732","MEAN_MOTION_DOT":"0.00000451","MEAN_ANOMALY":"300.2411","GP_ID":"199186153","SEMIMAJOR_AXIS":"6925.354","OBJECT_ID":"2021-021M"},{"DECAY_DATE":null,"COUNTRY_CODE":"US","MEAN_MOTION_DDOT":"0.0000000000000","CLASSIFICATION_TYPE":"U","OBJECT_NAME":"STARLINK-2328","PERIOD":"94.167","FILE":"3366144","OBJECT_TYPE":"PAYLOAD","RCS_SIZE":"LARGE","BSTAR":"0.00550380000000","TIME_SYSTEM":"UTC","CENTER_NAME":"EARTH","EPHEMERIS_TYPE":"0","SITE":"AFETR","REF_FRAME":"TEME","ECCENTRICITY":"0.00019100","TLE_LINE1":"1 47872U 21021N   22078.89265232  .00161144  00000-0  55038-2 0  9990","NORAD_CAT_ID":"47872","ELEMENT_SET_NO":"999","APOAPSIS":"479.539","LAUNCH_DATE":"2021-03-14","MEAN_MOTION":"15.29191750","MEAN_ELEMENT_THEORY":"SGP4","TLE_LINE2":"2 47872  53.0618 248.9204 0001910  43.3490 316.7659 15.29191750 58310","OBJECT_ID":"2021-021N","SEMIMAJOR_AXIS":"6856.364","GP_ID":"199184927","MEAN_ANOMALY":"316.7659","MEAN_MOTION_DOT":"0.00161144","EPOCH":"2022-03-19T21:25:25.160448","PERIAPSIS":"476.920","ARG_OF_PERICENTER":"43.3490","REV_AT_EPOCH":"5831","INCLINATION":"53.0618","RA_OF_ASC_NODE":"248.9204"},{"GP_ID":"199185177","OBJECT_ID":"2021-021P","SEMIMAJOR_AXIS":"6925.283","MEAN_MOTION_DOT":"0.00007354","ARG_OF_PERICENTER":"62.6473","PERIAPSIS":"545.914","EPOCH":"2022-03-19T21:03:21.067488","MEAN_ANOMALY":"297.4698","RA_OF_ASC_NODE":"294.5693","REV_AT_EPOCH":"5765","INCLINATION":"53.0560","RCS_SIZE":"LARGE","FILE":"3366144","OBJECT_TYPE":"PAYLOAD","OBJECT_NAME":"STARLINK-2329","CLASSIFICATION_TYPE":"U","DECAY_DATE":null,"MEAN_MOTION_DDOT":"0.0000000000000","COUNTRY_CODE":"US","PERIOD":"95.591","TIME_SYSTEM":"UTC","CENTER_NAME":"EARTH","BSTAR":"0.00051182000000","REF_FRAME":"TEME","ECCENTRICITY":"0.00017820","EPHEMERIS_TYPE":"0","SITE":"AFETR","MEAN_MOTION":"15.06421329","LAUNCH_DATE":"2021-03-14","ELEMENT_SET_NO":"999","APOAPSIS":"548.382","MEAN_ELEMENT_THEORY":"SGP4","TLE_LINE2":"2 47873  53.0560 294.5693 0001782  62.6473 297.4698 15.06421329 57655","NORAD_CAT_ID":"47873","TLE_LINE1":"1 47873U 21021P   22078.87732717  .00007354  00000-0  51182-3 0  9995"},{"OBJECT_TYPE":"PAYLOAD","FILE":"3366144","RCS_SIZE":"LARGE","CLASSIFICATION_TYPE":"U","OBJECT_NAME":"STARLINK-2330","COUNTRY_CODE":"US","DECAY_DATE":null,"MEAN_MOTION_DDOT":"0.0000000000000","PERIOD":"95.592","TIME_SYSTEM":"UTC","CENTER_NAME":"EARTH","BSTAR":"0.00020465000000","REF_FRAME":"TEME","ECCENTRICITY":"0.00015940","EPHEMERIS_TYPE":"0","SITE":"AFETR","MEAN_MOTION":"15.06408122","LAUNCH_DATE":"2021-03-14","APOAPSIS":"548.293","ELEMENT_SET_NO":"999","MEAN_ELEMENT_THEORY":"SGP4","TLE_LINE2":"2 47874  53.0543 249.5154 0001594  65.8015 294.3140 15.06408122 58292","NORAD_CAT_ID":"47874","TLE_LINE1":"1 47874U 21021Q   22078.88605078  .00002769  00000-0  20465-3 0  9991","GP_ID":"199186429","OBJECT_ID":"2021-021Q","SEMIMAJOR_AXIS":"6925.324","MEAN_MOTION_DOT":"0.00002769","ARG_OF_PERICENTER":"65.8015","EPOCH":"2022-03-19T21:15:54.787392","PERIAPSIS":"546.085","MEAN_ANOMALY":"294.3140","RA_OF_ASC_NODE":"249.5154","REV_AT_EPOCH":"5829","INCLINATION":"53.0543"},{"OBJECT_ID":"2021-021R","SEMIMAJOR_AXIS":"6925.336","GP_ID":"199186654","MEAN_ANOMALY":"286.1881","MEAN_MOTION_DOT":"0.00001245","EPOCH":"2022-03-19T20:51:24.067584","PERIAPSIS":"546.241","ARG_OF_PERICENTER":"73.9260","REV_AT_EPOCH":"5757","INCLINATION":"53.0541","RA_OF_ASC_NODE":"304.6151","COUNTRY_CODE":"US","DECAY_DATE":null,"MEAN_MOTION_DDOT":"0.0000000000000","CLASSIFICATION_TYPE":"U","OBJECT_NAME":"STARLINK-2331","PERIOD":"95.592","OBJECT_TYPE":"PAYLOAD","FILE":"3366144","RCS_SIZE":"LARGE","BSTAR":"0.00010243000000","TIME_SYSTEM":"UTC","CENTER_NAME":"EARTH","EPHEMERIS_TYPE":"0","SITE":"AFETR","REF_FRAME":"TEME","ECCENTRICITY":"0.00013860","TLE_LINE1":"1 47875U 21021R   22078.86902856  .00001245  00000-0  10243-3 0  9995","NORAD_CAT_ID":"47875","APOAPSIS":"548.160","ELEMENT_SET_NO":"999","LAUNCH_DATE":"2021-03-14","MEAN_MOTION":"15.06404252","TLE_LINE2":"2 47875  53.0541 304.6151 0001386  73.9260 286.1881 15.06404252 57573","MEAN_ELEMENT_THEORY":"SGP4"},{"REF_FRAME":"TEME","ECCENTRICITY":"0.00016820","EPHEMERIS_TYPE":"0","SITE":"AFETR","ELEMENT_SET_NO":"999","APOAPSIS":"548.356","MEAN_MOTION":"15.06407317","LAUNCH_DATE":"2021-03-14","TLE_LINE2":"2 47876  53.0542 304.6665 0001682  51.5651 308.5489 15.06407317 57523","MEAN_ELEMENT_THEORY":"SGP4","TLE_LINE1":"1 47876U 21021S   22078.85797588  .00001416  00000-0  11389-3 0  9991","NORAD_CAT_ID":"47876","FILE":"3366144","RCS_SIZE":"LARGE","OBJECT_TYPE":"PAYLOAD","COUNTRY_CODE":"US","DECAY_DATE":null,"MEAN_MOTION_DDOT":"0.0000000000000","CLASSIFICATION_TYPE":"U","OBJECT_NAME":"STARLINK-2332","PERIOD":"95.592","TIME_SYSTEM":"UTC","CENTER_NAME":"EARTH","BSTAR":"0.00011389000000","MEAN_MOTION_DOT":"0.00001416","EPOCH":"2022-03-19T20:35:29.116032","PERIAPSIS":"546.026","ARG_OF_PERICENTER":"51.5651","MEAN_ANOMALY":"308.5489","RA_OF_ASC_NODE":"304.6665","REV_AT_EPOCH":"5752","INCLINATION":"53.0542","GP_ID":"199185428","OBJECT_ID":"2021-021S","SEMIMAJOR_AXIS":"6925.326"},{"OBJECT_ID":"2021-021T","SEMIMAJOR_AXIS":"6925.316","GP_ID":"199185678","MEAN_ANOMALY":"300.1729","MEAN_MOTION_DOT":"0.00007250","ARG_OF_PERICENTER":"59.9439","PERIAPSIS":"545.936","EPOCH":"2022-03-19T20:56:44.466432","REV_AT_EPOCH":"5751","INCLINATION":"53.0539","RA_OF_ASC_NODE":"304.5966","CLASSIFICATION_TYPE":"U","OBJECT_NAME":"STARLINK-2333","COUNTRY_CODE":"US","DECAY_DATE":null,"MEAN_MOTION_DDOT":"0.0000000000000","PERIOD":"95.591","FILE":"3366144","OBJECT_TYPE":"PAYLOAD","RCS_SIZE":"LARGE","BSTAR":"0.00050495000000","TIME_SYSTEM":"UTC","CENTER_NAME":"EARTH","EPHEMERIS_TYPE":"0","SITE":"AFETR","REF_FRAME":"TEME","ECCENTRICITY":"0.00017980","NORAD_CAT_ID":"47877","TLE_LINE1":"1 47877U 21021T   22078.87273688  .00007250  00000-0  50495-3 0  9997","LAUNCH_DATE":"2021-03-14","MEAN_MOTION":"15.06410682","APOAPSIS":"548.426","ELEMENT_SET_NO":"999","TLE_LINE2":"2 47877  53.0539 304.5966 0001798  59.9439 300.1729 15.06410682 57510","MEAN_ELEMENT_THEORY":"SGP4"},{"SEMIMAJOR_AXIS":"6925.340","OBJECT_ID":"2021-021U","GP_ID":"199185929","MEAN_ANOMALY":"309.2595","ARG_OF_PERICENTER":"50.8548","PERIAPSIS":"546.002","EPOCH":"2022-03-19T21:12:37.923264","MEAN_MOTION_DOT":"0.00002449","INCLINATION":"53.0541","REV_AT_EPOCH":"5731","RA_OF_ASC_NODE":"304.5443","PERIOD":"95.592","CLASSIFICATION_TYPE":"U","OBJECT_NAME":"STARLINK-2335","COUNTRY_CODE":"US","DECAY_DATE":null,"MEAN_MOTION_DDOT":"0.0000000000000","OBJECT_TYPE":"PAYLOAD","FILE":"3366144","RCS_SIZE":"LARGE","BSTAR":"0.00018327000000","CENTER_NAME":"EARTH","TIME_SYSTEM":"UTC","SITE":"AFETR","EPHEMERIS_TYPE":"0","ECCENTRICITY":"0.00017360","REF_FRAME":"TEME","NORAD_CAT_ID":"47878","TLE_LINE1":"1 47878U 21021U   22078.88377226  .00002449  00000-0  18327-3 0  9995","MEAN_ELEMENT_THEORY":"SGP4","TLE_LINE2":"2 47878  53.0541 304.5443 0001736  50.8548 309.2595 15.06402929 57311","LAUNCH_DATE":"2021-03-14","MEAN_MOTION":"15.06402929","ELEMENT_SET_NO":"999","APOAPSIS":"548.407"},{"MEAN_ANOMALY":"296.5369","ARG_OF_PERICENTER":"63.5809","EPOCH":"2022-03-19T21:07:59.308320","PERIAPSIS":"545.944","MEAN_MOTION_DOT":"0.00001165","INCLINATION":"53.0558","REV_AT_EPOCH":"5748","RA_OF_ASC_NODE":"319.5665","SEMIMAJOR_AXIS":"6925.354","OBJECT_ID":"2021-021V","GP_ID":"199186154","SITE":"AFETR","EPHEMERIS_TYPE":"0","ECCENTRICITY":"0.00018410","REF_FRAME":"TEME","NORAD_CAT_ID":"47879","TLE_LINE1":"1 47879U 21021V   22078.88054755  .00001165  00000-0  97109-4 0  9995","TLE_LINE2":"2 47879  53.0558 319.5665 0001841  63.5809 296.5369 15.06398181 57489","MEAN_ELEMENT_THEORY":"SGP4","LAUNCH_DATE":"2021-03-14","MEAN_MOTION":"15.06398181","APOAPSIS":"548.494","ELEMENT_SET_NO":"999","PERIOD":"95.592","CLASSIFICATION_TYPE":"U","OBJECT_NAME":"STARLINK-2336","COUNTRY_CODE":"US","DECAY_DATE":null,"MEAN_MOTION_DDOT":"0.0000000000000","RCS_SIZE":"LARGE","FILE":"3366144","OBJECT_TYPE":"PAYLOAD","BSTAR":"0.00009710900000","CENTER_NAME":"EARTH","TIME_SYSTEM":"UTC"}];
